start=new Date('2022-09-16T00:00:00.000Z').valueOf();
sats=[{"OBJECT_ID":"2022-086AW","OBJECT_NAME":"STARLINK-4165","SITE":"AFETR","LAUNCH_DATE":"2022-07-24","CENTER_NAME":"EARTH","MEAN_MOTION":"15.73258253","FILE":"3575050","NORAD_CAT_ID":"53286","ELEMENT_SET_NO":"999","COUNTRY_CODE":"US","EPHEMERIS_TYPE":"0","TIME_SYSTEM":"UTC","BSTAR":"-0.00042694000000","ECCENTRICITY":"0.00016040","PERIOD":"91.530","REV_AT_EPOCH":"130","MEAN_MOTION_DDOT":"0.0000000000000","APOAPSIS":"350.673","EPOCH":"2022-09-15T22:00:00.999936","REF_FRAME":"TEME","SEMIMAJOR_AXIS":"6727.729","PERIAPSIS":"348.515","ARG_OF_PERICENTER":"30.3402","TLE_LINE1":"1 53286U 22086AW  22258.91667824 -.00060262  00000-0 -42694-3 0  9990","MEAN_ANOMALY":"62.7836","RA_OF_ASC_NODE":"139.1415","RCS_SIZE":"LARGE","MEAN_MOTION_DOT":"-0.00060262","CLASSIFICATION_TYPE":"U","MEAN_ELEMENT_THEORY":"SGP4","TLE_LINE2":"2 53286  53.2158 139.1415 0001604  30.3402  62.7836 15.73258253  1304","GP_ID":"212684083","DECAY_DATE":null,"OBJECT_TYPE":"PAYLOAD","INCLINATION":"53.2158"},{"MEAN_ELEMENT_THEORY":"SGP4","MEAN_ANOMALY":"187.8875","RA_OF_ASC_NODE":"138.7226","CLASSIFICATION_TYPE":"U","RCS_SIZE":"LARGE","MEAN_MOTION_DOT":"-0.00044335","DECAY_DATE":null,"OBJECT_TYPE":"PAYLOAD","INCLINATION":"53.2148","TLE_LINE2":"2 53287  53.2148 138.7226 0002227  19.8078 187.8875 15.73208832  9041","GP_ID":"212656013","REF_FRAME":"TEME","SEMIMAJOR_AXIS":"6727.870","APOAPSIS":"351.233","EPOCH":"2022-09-16T00:00:00.999648","ARG_OF_PERICENTER":"19.8078","TLE_LINE1":"1 53287U 22086AX  22259.00001157 -.00044335  00000-0 -31297-3 0  9993","PERIAPSIS":"348.237","TIME_SYSTEM":"UTC","COUNTRY_CODE":"US","EPHEMERIS_TYPE":"0","ECCENTRICITY":"0.00022270","REV_AT_EPOCH":"904","PERIOD":"91.533","MEAN_MOTION_DDOT":"0.0000000000000","BSTAR":"-0.00031297000000","OBJECT_NAME":"STARLINK-4107","OBJECT_ID":"2022-086AX","FILE":"3574931","NORAD_CAT_ID":"53287","ELEMENT_SET_NO":"999","SITE":"AFETR","MEAN_MOTION":"15.73208832","LAUNCH_DATE":"2022-07-24","CENTER_NAME":"EARTH"},{"FILE":"3574931","NORAD_CAT_ID":"53288","ELEMENT_SET_NO":"999","SITE":"AFETR","LAUNCH_DATE":"2022-07-24","MEAN_MOTION":"15.73232732","CENTER_NAME":"EARTH","OBJECT_NAME":"STARLINK-4162","OBJECT_ID":"2022-086AY","ECCENTRICITY":"0.00019470","PERIOD":"91.531","REV_AT_EPOCH":"904","MEAN_MOTION_DDOT":"0.0000000000000","BSTAR":"-0.00038932000000","TIME_SYSTEM":"UTC","COUNTRY_CODE":"US","EPHEMERIS_TYPE":"0","ARG_OF_PERICENTER":"27.9854","TLE_LINE1":"1 53288U 22086AY  22259.00001157 -.00054984  00000-0 -38932-3 0  9998","PERIAPSIS":"348.357","REF_FRAME":"TEME","SEMIMAJOR_AXIS":"6727.802","APOAPSIS":"350.977","EPOCH":"2022-09-16T00:00:00.999648","DECAY_DATE":null,"OBJECT_TYPE":"PAYLOAD","INCLINATION":"53.2157","TLE_LINE2":"2 53288  53.2157 138.7262 0001947  27.9854 177.9149 15.73232732  9042","GP_ID":"212656237","MEAN_ELEMENT_THEORY":"SGP4","MEAN_ANOMALY":"177.9149","RA_OF_ASC_NODE":"138.7262","RCS_SIZE":"LARGE","MEAN_MOTION_DOT":"-0.00054984","CLASSIFICATION_TYPE":"U"},{"TIME_SYSTEM":"UTC","COUNTRY_CODE":"US","EPHEMERIS_TYPE":"0","ECCENTRICITY":"0.00020180","MEAN_MOTION_DDOT":"0.0000000000000","REV_AT_EPOCH":"130","PERIOD":"91.530","BSTAR":"-0.00049019000000","OBJECT_NAME":"STARLINK-4176","OBJECT_ID":"2022-086AZ","NORAD_CAT_ID":"53289","FILE":"3575050","ELEMENT_SET_NO":"999","LAUNCH_DATE":"2022-07-24","MEAN_MOTION":"15.73250707","CENTER_NAME":"EARTH","SITE":"AFETR","MEAN_ELEMENT_THEORY":"SGP4","MEAN_ANOMALY":"64.0250","RCS_SIZE":"LARGE","MEAN_MOTION_DOT":"-0.00069009","CLASSIFICATION_TYPE":"U","RA_OF_ASC_NODE":"139.1363","DECAY_DATE":null,"INCLINATION":"53.2161","OBJECT_TYPE":"PAYLOAD","TLE_LINE2":"2 53289  53.2161 139.1363 0002018  32.6320  64.0250 15.73250707  1308","GP_ID":"212684607","REF_FRAME":"TEME","SEMIMAJOR_AXIS":"6727.751","APOAPSIS":"350.973","EPOCH":"2022-09-15T22:00:00.999936","ARG_OF_PERICENTER":"32.6320","TLE_LINE1":"1 53289U 22086AZ  22258.91667824 -.00069009  00000-0 -49019-3 0  9999","PERIAPSIS":"348.258"},{"SEMIMAJOR_AXIS":"6727.840","REF_FRAME":"TEME","EPOCH":"2022-09-15T22:00:00.999936","APOAPSIS":"351.006","TLE_LINE1":"1 53290U 22086BA  22258.91667824  .00048732  00000-0  34932-3 0  9997","ARG_OF_PERICENTER":"27.1025","PERIAPSIS":"348.405","MEAN_ELEMENT_THEORY":"SGP4","RCS_SIZE":"LARGE","CLASSIFICATION_TYPE":"U","MEAN_MOTION_DOT":"0.00048732","RA_OF_ASC_NODE":"139.1377","MEAN_ANOMALY":"67.7514","INCLINATION":"53.2157","OBJECT_TYPE":"PAYLOAD","DECAY_DATE":null,"GP_ID":"212683670","TLE_LINE2":"2 53290  53.2157 139.1377 0001933  27.1025  67.7514 15.73219310  1304","OBJECT_NAME":"STARLINK-4149","OBJECT_ID":"2022-086BA","ELEMENT_SET_NO":"999","NORAD_CAT_ID":"53290","FILE":"3575050","MEAN_MOTION":"15.73219310","LAUNCH_DATE":"2022-07-24","CENTER_NAME":"EARTH","SITE":"AFETR","TIME_SYSTEM":"UTC","EPHEMERIS_TYPE":"0","COUNTRY_CODE":"US","MEAN_MOTION_DDOT":"0.0000000000000","REV_AT_EPOCH":"130","PERIOD":"91.532","ECCENTRICITY":"0.00019330","BSTAR":"0.00034932000000"},{"EPOCH":"2022-09-16T00:00:00.999648","APOAPSIS":"350.891","SEMIMAJOR_AXIS":"6727.803","REF_FRAME":"TEME","PERIAPSIS":"348.446","TLE_LINE1":"1 53291U 22086BB  22259.00001157 -.00028651  00000-0 -20012-3 0  9994","ARG_OF_PERICENTER":"28.7878","RCS_SIZE":"LARGE","CLASSIFICATION_TYPE":"U","MEAN_MOTION_DOT":"-0.00028651","RA_OF_ASC_NODE":"138.7192","MEAN_ANOMALY":"180.6859","MEAN_ELEMENT_THEORY":"SGP4","GP_ID":"212656007","TLE_LINE2":"2 53291  53.2148 138.7192 0001817  28.7878 180.6859 15.73232230  9041","INCLINATION":"53.2148","OBJECT_TYPE":"PAYLOAD","DECAY_DATE":null,"OBJECT_ID":"2022-086BB","OBJECT_NAME":"STARLINK-4166","MEAN_MOTION":"15.73232230","LAUNCH_DATE":"2022-07-24","CENTER_NAME":"EARTH","SITE":"AFETR","ELEMENT_SET_NO":"999","NORAD_CAT_ID":"53291","FILE":"3574931","EPHEMERIS_TYPE":"0","COUNTRY_CODE":"US","TIME_SYSTEM":"UTC","BSTAR":"-0.00020012000000","MEAN_MOTION_DDOT":"0.0000000000000","REV_AT_EPOCH":"904","PERIOD":"91.531","ECCENTRICITY":"0.00018170"},{"TIME_SYSTEM":"UTC","COUNTRY_CODE":"US","EPHEMERIS_TYPE":"0","ECCENTRICITY":"0.00018500","REV_AT_EPOCH":"904","PERIOD":"91.534","MEAN_MOTION_DDOT":"0.0000000000000","BSTAR":"0.00016267000000","OBJECT_NAME":"STARLINK-4159","OBJECT_ID":"2022-086BC","FILE":"3574930","NORAD_CAT_ID":"53292","ELEMENT_SET_NO":"999","SITE":"AFETR","LAUNCH_DATE":"2022-07-24","CENTER_NAME":"EARTH","MEAN_MOTION":"15.73183432","MEAN_ELEMENT_THEORY":"SGP4","MEAN_ANOMALY":"180.6861","RA_OF_ASC_NODE":"138.7237","RCS_SIZE":"LARGE","CLASSIFICATION_TYPE":"U","MEAN_MOTION_DOT":"0.00022254","DECAY_DATE":null,"OBJECT_TYPE":"PAYLOAD","INCLINATION":"53.2160","TLE_LINE2":"2 53292  53.2160 138.7237 0001850  27.6252 180.6861 15.73183432  9049","GP_ID":"212656023","REF_FRAME":"TEME","SEMIMAJOR_AXIS":"6727.942","APOAPSIS":"351.052","EPOCH":"2022-09-16T00:00:00.999648","ARG_OF_PERICENTER":"27.6252","TLE_LINE1":"1 53292U 22086BC  22259.00001157  .00022254  00000-0  16267-3 0  9993","PERIAPSIS":"348.563"},{"SITE":"AFETR","CENTER_NAME":"EARTH","LAUNCH_DATE":"2022-07-24","MEAN_MOTION":"15.73232184","FILE":"3574930","NORAD_CAT_ID":"53293","ELEMENT_SET_NO":"999","OBJECT_ID":"2022-086BD","OBJECT_NAME":"STARLINK-4148","BSTAR":"-0.00031938000000","ECCENTRICITY":"0.00019310","PERIOD":"91.531","REV_AT_EPOCH":"904","MEAN_MOTION_DDOT":"0.0000000000000","COUNTRY_CODE":"US","EPHEMERIS_TYPE":"0","TIME_SYSTEM":"UTC","PERIAPSIS":"348.369","ARG_OF_PERICENTER":"26.8921","TLE_LINE1":"1 53293U 22086BD  22259.00001157 -.00045268  00000-0 -31938-3 0  9998","APOAPSIS":"350.968","EPOCH":"2022-09-16T00:00:00.999648","REF_FRAME":"TEME","SEMIMAJOR_AXIS":"6727.803","TLE_LINE2":"2 53293  53.2146 138.7228 0001931  26.8921 183.2199 15.73232184  9040","GP_ID":"212656245","DECAY_DATE":null,"OBJECT_TYPE":"PAYLOAD","INCLINATION":"53.2146","MEAN_ANOMALY":"183.2199","RA_OF_ASC_NODE":"138.7228","CLASSIFICATION_TYPE":"U","RCS_SIZE":"LARGE","MEAN_MOTION_DOT":"-0.00045268","MEAN_ELEMENT_THEORY":"SGP4"},{"APOAPSIS":"350.973","EPOCH":"2022-09-16T00:00:00.999648","REF_FRAME":"TEME","SEMIMAJOR_AXIS":"6727.962","PERIAPSIS":"348.681","ARG_OF_PERICENTER":"30.8591","TLE_LINE1":"1 53294U 22086BE  22259.00001157  .00067205  00000-0  47990-3 0  9997","MEAN_ANOMALY":"179.8448","RA_OF_ASC_NODE":"138.7188","RCS_SIZE":"LARGE","MEAN_MOTION_DOT":"0.00067205","CLASSIFICATION_TYPE":"U","MEAN_ELEMENT_THEORY":"SGP4","TLE_LINE2":"2 53294  53.2158 138.7188 0001703  30.8591 179.8448 15.73176654  9041","GP_ID":"212656246","DECAY_DATE":null,"OBJECT_TYPE":"PAYLOAD","INCLINATION":"53.2158","OBJECT_ID":"2022-086BE","OBJECT_NAME":"STARLINK-4146","SITE":"AFETR","MEAN_MOTION":"15.73176654","LAUNCH_DATE":"2022-07-24","CENTER_NAME":"EARTH","FILE":"3574930","NORAD_CAT_ID":"53294","ELEMENT_SET_NO":"999","COUNTRY_CODE":"US","EPHEMERIS_TYPE":"0","TIME_SYSTEM":"UTC","BSTAR":"0.00047990000000","ECCENTRICITY":"0.00017030","REV_AT_EPOCH":"904","PERIOD":"91.535","MEAN_MOTION_DDOT":"0.0000000000000"},{"DECAY_DATE":null,"OBJECT_TYPE":"PAYLOAD","INCLINATION":"53.2173","TLE_LINE2":"2 53388  53.2173  69.3734 0001614  52.4721 124.4783 15.26453904  1307","GP_ID":"212684092","MEAN_ELEMENT_THEORY":"SGP4","MEAN_ANOMALY":"124.4783","RA_OF_ASC_NODE":"69.3734","RCS_SIZE":"LARGE","CLASSIFICATION_TYPE":"U","MEAN_MOTION_DOT":"-0.01114853","ARG_OF_PERICENTER":"52.4721","TLE_LINE1":"1 53388U 22097A   22258.91667824 -.01114853  00000-0 -46253-1 0  9995","PERIAPSIS":"485.317","REF_FRAME":"TEME","SEMIMAJOR_AXIS":"6864.560","APOAPSIS":"487.533","EPOCH":"2022-09-15T22:00:00.999936","ECCENTRICITY":"0.00016140","PERIOD":"94.336","REV_AT_EPOCH":"130","MEAN_MOTION_DDOT":"0.0000000000000","BSTAR":"-0.04625300000000","TIME_SYSTEM":"UTC","COUNTRY_CODE":"US","EPHEMERIS_TYPE":"0","FILE":"3575050","NORAD_CAT_ID":"53388","ELEMENT_SET_NO":"999","SITE":"AFETR","MEAN_MOTION":"15.26453904","LAUNCH_DATE":"2022-08-10","CENTER_NAME":"EARTH","OBJECT_NAME":"STARLINK-4522","OBJECT_ID":"2022-097A"}];
